[{"OBJECT_NAME":"SL-8 R/B","OBJECT_ID":"1991-006B","EPOCH":"2026-03-18T11:25:16.609152","MEAN_MOTION":13.77495422,"ECCENTRICITY":0.00225384,"INCLINATION":82.9459,"RA_OF_ASC_NODE":163.5142,"ARG_OF_PERICENTER":14.3108,"MEAN_ANOMALY":356.6977,"EPHEMERIS_TYPE":0,"CLASSIFICATION_TYPE":"U","NORAD_CAT_ID":21088,"ELEMENT_SET_NO":999,"REV_AT_EPOCH":76528,"BSTAR":6.7678723e-5,"MEAN_MOTION_DOT":8.3e-7,"MEAN_MOTION_DDOT":0},{"OBJECT_NAME":"OKEAN-3","OBJECT_ID":"1991-039A","EPOCH":"2026-03-18T15:44:12.632064","MEAN_MOTION":15.04866858,"ECCENTRICITY":0.00130246,"INCLINATION":82.5194,"RA_OF_ASC_NODE":328.1587,"ARG_OF_PERICENTER":303.6458,"MEAN_ANOMALY":56.3526,"EPHEMERIS_TYPE":0,"CLASSIFICATION_TYPE":"U","NORAD_CAT_ID":21397,"ELEMENT_SET_NO":999,"REV_AT_EPOCH":86638,"BSTAR":0.00014366249,"MEAN_MOTION_DOT":2.061e-5,"MEAN_MOTION_DDOT":0},{"OBJECT_NAME":"COSMOS 2151","OBJECT_ID":"1991-042A","EPOCH":"2026-03-18T13:18:57.208320","MEAN_MOTION":15.00141646,"ECCENTRICITY":0.00134171,"INCLINATION":82.4931,"RA_OF_ASC_NODE":75.1217,"ARG_OF_PERICENTER":36.4737,"MEAN_ANOMALY":323.7399,"EPHEMERIS_TYPE":0,"CLASSIFICATION_TYPE":"U","NORAD_CAT_ID":21422,"ELEMENT_SET_NO":999,"REV_AT_EPOCH":86452,"BSTAR":0.00014964205,"MEAN_MOTION_DOT":1.897e-5,"MEAN_MOTION_DDOT":0},{"OBJECT_NAME":"SL-14 R/B","OBJECT_ID":"1991-042B","EPOCH":"2026-03-18T09:37:28.123680","MEAN_MOTION":14.81838765,"ECCENTRICITY":0.00163252,"INCLINATION":82.4939,"RA_OF_ASC_NODE":212.014,"ARG_OF_PERICENTER":208.1616,"MEAN_ANOMALY":151.8717,"EPHEMERIS_TYPE":0,"CLASSIFICATION_TYPE":"U","NORAD_CAT_ID":21423,"ELEMENT_SET_NO":999,"REV_AT_EPOCH":85436,"BSTAR":5.5982723e-5,"MEAN_MOTION_DOT":4.66e-6,"MEAN_MOTION_DDOT":0},{"OBJECT_NAME":"ERS-1","OBJECT_ID":"1991-050A","EPOCH":"2026-03-18T10:56:12.727104","MEAN_MOTION":14.39455963,"ECCENTRICITY":0.00321106,"INCLINATION":98.7875,"RA_OF_ASC_NODE":95.9105,"ARG_OF_PERICENTER":174.3421,"MEAN_ANOMALY":185.8135,"EPHEMERIS_TYPE":0,"CLASSIFICATION_TYPE":"U","NORAD_CAT_ID":21574,"ELEMENT_SET_NO":999,"REV_AT_EPOCH":81699,"BSTAR":0.00010177292,"MEAN_MOTION_DOT":2.72e-6,"MEAN_MOTION_DDOT":0},{"OBJECT_NAME":"ARIANE 40 R/B","OBJECT_ID":"1991-050F","EPOCH":"2026-03-18T13:19:24.476160","MEAN_MOTION":14.42900043,"ECCENTRICITY":0.00040816,"INCLINATION":98.1993,"RA_OF_ASC_NODE":129.4582,"ARG_OF_PERICENTER":61.8985,"MEAN_ANOMALY":298.2618,"EPHEMERIS_TYPE":0,"CLASSIFICATION_TYPE":"U","NORAD_CAT_ID":21610,"ELEMENT_SET_NO":999,"REV_AT_EPOCH":82027,"BSTAR":9.3338144e-5,"MEAN_MOTION_DOT":2.7e-6,"MEAN_MOTION_DDOT":0},{"OBJECT_NAME":"INTERCOSMOS 25","OBJECT_ID":"1991-086A","EPOCH":"2026-03-18T13:45:22.885920","MEAN_MOTION":12.12031562,"ECCENTRICITY":0.14868213,"INCLINATION":82.6037,"RA_OF_ASC_NODE":304.6392,"ARG_OF_PERICENTER":97.794,"MEAN_ANOMALY":279.3933,"EPHEMERIS_TYPE":0,"CLASSIFICATION_TYPE":"U","NORAD_CAT_ID":21819,"ELEMENT_SET_NO":999,"REV_AT_EPOCH":49776,"BSTAR":0.00031464693,"MEAN_MOTION_DOT":1.643e-5,"MEAN_MOTION_DDOT":0},{"OBJECT_NAME":"SL-8 R/B","OBJECT_ID":"1992-008B","EPOCH":"2026-03-18T10:30:11.562912","MEAN_MOTION":13.75969674,"ECCENTRICITY":0.00358371,"INCLINATION":82.9222,"RA_OF_ASC_NODE":261.2688,"ARG_OF_PERICENTER":109.6413,"MEAN_ANOMALY":260.9083,"EPHEMERIS_TYPE":0,"CLASSIFICATION_TYPE":"U","NORAD_CAT_ID":21876,"ELEMENT_SET_NO":999,"REV_AT_EPOCH":71062,"BSTAR":-1.026047e-5,"MEAN_MOTION_DOT":6.0e-8,"MEAN_MOTION_DDOT":0},{"OBJECT_NAME":"SL-8 R/B","OBJECT_ID":"1992-020B","EPOCH":"2026-03-18T15:47:29.732064","MEAN_MOTION":13.75550187,"ECCENTRICITY":0.00275381,"INCLINATION":82.9322,"RA_OF_ASC_NODE":147.1035,"ARG_OF_PERICENTER":272.5724,"MEAN_ANOMALY":241.7803,"EPHEMERIS_TYPE":0,"CLASSIFICATION_TYPE":"U","NORAD_CAT_ID":21938,"ELEMENT_SET_NO":999,"REV_AT_EPOCH":70236,"BSTAR":4.9860487e-5,"MEAN_MOTION_DOT":6.3e-7,"MEAN_MOTION_DDOT":0},{"OBJECT_NAME":"COSMOS 2219","OBJECT_ID":"1992-076A","EPOCH":"2026-03-18T12:06:48.247776","MEAN_MOTION":14.14093459,"ECCENTRICITY":0.0018462,"INCLINATION":71.0641,"RA_OF_ASC_NODE":359.6423,"ARG_OF_PERICENTER":194.7645,"MEAN_ANOMALY":165.2941,"EPHEMERIS_TYPE":0,"CLASSIFICATION_TYPE":"U","NORAD_CAT_ID":22219,"ELEMENT_SET_NO":999,"REV_AT_EPOCH":71962,"BSTAR":-3.4071963e-5,"MEAN_MOTION_DOT":-1.12e-6,"MEAN_MOTION_DDOT":0},{"OBJECT_NAME":"SL-16 R/B","OBJECT_ID":"1992-076B","EPOCH":"2026-03-18T12:16:49.933056","MEAN_MOTION":14.16860213,"ECCENTRICITY":0.00105946,"INCLINATION":71.0006,"RA_OF_ASC_NODE":169.792,"ARG_OF_PERICENTER":80.0756,"MEAN_ANOMALY":290.8138,"EPHEMERIS_TYPE":0,"CLASSIFICATION_TYPE":"U","NORAD_CAT_ID":22220,"ELEMENT_SET_NO":999,"REV_AT_EPOCH":72308,"BSTAR":0.00013761356,"MEAN_MOTION_DOT":2.28e-6,"MEAN_MOTION_DDOT":0},{"OBJECT_NAME":"COSMOS 2221","OBJECT_ID":"1992-080A","EPOCH":"2026-03-18T12:46:05.436768","MEAN_MOTION":14.96236025,"ECCENTRICITY":0.00147961,"INCLINATION":82.5002,"RA_OF_ASC_NODE":270.6088,"ARG_OF_PERICENTER":157.8736,"MEAN_ANOMALY":202.3128,"EPHEMERIS_TYPE":0,"CLASSIFICATION_TYPE":"U","NORAD_CAT_ID":22236,"ELEMENT_SET_NO":999,"REV_AT_EPOCH":78211,"BSTAR":0.00016043819,"MEAN_MOTION_DOT":1.839e-5,"MEAN_MOTION_DDOT":0},{"OBJECT_NAME":"SL-16 R/B","OBJECT_ID":"1992-093B","EPOCH":"2026-03-18T10:21:59.188320","MEAN_MOTION":14.15447849,"ECCENTRICITY":0.00062824,"INCLINATION":71.0239,"RA_OF_ASC_NODE":345.9154,"ARG_OF_PERICENTER":284.8808,"MEAN_ANOMALY":75.1619,"EPHEMERIS_TYPE":0,"CLASSIFICATION_TYPE":"U","NORAD_CAT_ID":22285,"ELEMENT_SET_NO":999,"REV_AT_EPOCH":71439,"BSTAR":0.00011279175,"MEAN_MOTION_DOT":1.73e-6,"MEAN_MOTION_DDOT":0},{"OBJECT_NAME":"COSMOS 2228","OBJECT_ID":"1992-094A","EPOCH":"2026-03-18T14:37:24.379680","MEAN_MOTION":14.97235942,"ECCENTRICITY":0.0016606,"INCLINATION":82.5169,"RA_OF_ASC_NODE":228.7693,"ARG_OF_PERICENTER":272.2138,"MEAN_ANOMALY":87.7183,"EPHEMERIS_TYPE":0,"CLASSIFICATION_TYPE":"U","NORAD_CAT_ID":22286,"ELEMENT_SET_NO":999,"REV_AT_EPOCH":77739,"BSTAR":0.00019577899,"MEAN_MOTION_DOT":2.297e-5,"MEAN_MOTION_DDOT":0},{"OBJECT_NAME":"SL-16 R/B","OBJECT_ID":"1993-016B","EPOCH":"2026-03-18T14:44:57.693696","MEAN_MOTION":14.15307953,"ECCENTRICITY":0.00122832,"INCLINATION":71.0083,"RA_OF_ASC_NODE":196.4373,"ARG_OF_PERICENTER":302.4996,"MEAN_ANOMALY":57.4939,"EPHEMERIS_TYPE":0,"CLASSIFICATION_TYPE":"U","NORAD_CAT_ID":22566,"ELEMENT_SET_NO":999,"REV_AT_EPOCH":70343,"BSTAR":-0.0001061913,"MEAN_MOTION_DOT":-2.55e-6,"MEAN_MOTION_DDOT":0},{"OBJECT_NAME":"COSMOS 2242","OBJECT_ID":"1993-024A","EPOCH":"2026-03-18T11:04:42.818880","MEAN_MOTION":14.96585605,"ECCENTRICITY":0.00149119,"INCLINATION":82.5152,"RA_OF_ASC_NODE":258.3236,"ARG_OF_PERICENTER":276.7471,"MEAN_ANOMALY":83.2054,"EPHEMERIS_TYPE":0,"CLASSIFICATION_TYPE":"U","NORAD_CAT_ID":22626,"ELEMENT_SET_NO":999,"REV_AT_EPOCH":78170,"BSTAR":0.00016985009,"MEAN_MOTION_DOT":1.963e-5,"MEAN_MOTION_DDOT":0}]
